     2.11           N: GPS NAV DATA                         RINEX VERSION / TYPE
teqc  2019Feb25                         20221121 12:27:50UTCPGM / RUN BY / DATE
OSX ker:10.11.6|Core i5|gcc 4.3 -m64|OSX ker:10.10+|=+      COMMENT
    1.0245D-08  7.4506D-09 -5.9605D-08 -5.9605D-08          ION ALPHA
    8.8064D+04  0.0000D+00 -1.9661D+05 -6.5536D+04          ION BETA
    1.024454832077D-08 2.486899575160D-14   405504     1551 DELTA-UTC: A0,A1,T,W
                                                            END OF HEADER
12 09  9 28 23 59 44.0-2.120500430465D-04 5.570655048359D-12 0.000000000000D+00
    2.400000000000D+01-8.434375000000D+01 4.305536485734D-09 2.969135122156D+00
   -4.399567842484D-06 3.064334741794D-03 5.699694156647D-06 5.153566993713D+03
    1.727840000000D+05 4.097819328308D-08 1.543667909565D+00 9.313225746155D-09
    9.678628664133D-01 2.700625000000D+02-5.865160202322D-01-8.042120700893D-09
   -1.060758470562D-10 1.000000000000D+00 1.551000000000D+03 0.000000000000D+00
    2.000000000000D+00 0.000000000000D+00-1.164153218269D-08 2.400000000000D+01
    1.656180000000D+05 4.000000000000D+00
 2 09  9 28 23 59 44.0 1.762835308909D-04 3.296918293927D-12 0.000000000000D+00
    2.400000000000D+01 3.118750000000D+01 5.364866325359D-09-1.657573410300D+00
    1.609325408936D-06 9.102995158173D-03 6.608664989471D-06 5.153709184647D+03
    1.727840000000D+05-2.421438694000D-08-2.666022979975D+00-1.974403858185D-07
    9.410184820427D-01 2.424375000000D+02 2.897193803957D+00-8.441780205459D-09
    3.139416483584D-10 1.000000000000D+00 1.551000000000D+03 0.000000000000D+00
    2.000000000000D+00 0.000000000000D+00-1.722946763039D-08 2.400000000000D+01
    1.673580000000D+05 4.000000000000D+00
13 09  9 28 23 59 44.0 3.051622770727D-04 4.547473508865D-13 0.000000000000D+00
    1.600000000000D+01 6.125000000000D+01 3.588006597734D-09-1.051013510589D+00
    3.099441528320D-06 3.987679374404D-03 9.236857295036D-06 5.153652132034D+03
    1.727840000000D+05-2.793967723846D-08-4.955034494904D-01 5.960464477539D-08
    9.945407224302D-01 2.193437500000D+02 1.661755202591D+00-7.671390972798D-09
   -7.821754378894D-11 1.000000000000D+00 1.551000000000D+03 0.000000000000D+00
    2.000000000000D+00 0.000000000000D+00-1.117587089539D-08 1.600000000000D+01
    1.702080000000D+05 4.000000000000D+00
